{
    "timeScale": 1000,
    "gravitationalConstant": 0.000000000000000000066743,
    "earth": {
        "mass": 5972000000000000000000000,
        "size": 12742,

        "gm": 398589.196
    },
    "satellites": [
        {
            "mass": 420000,
            "size": 50,
            "orbitalElements": {
                "Eccentricity": 0.0004875,
                "SemiMajorAxis": 6787,
                "Inclination": 0.9013229323,
                "LongitudeOfAscendingNode": 1.6259801471,
                "ArgumentOfPeriapsis": 1.8686751609,
                "MeanAnomaly": 5.6834692322
            }
        }
    ]
}
